{"type": "FeatureCollection", "features": [{"type": "Feature", "properties": {"norad_id": 50032, "name": "COSMOS 1408 DEB", "group": "cosmos-1408-debris", "lat": 79.25497655853574, "lon": -171.61197364875557, "alt_km": 421.1489498402543, "timestamp": "2025-12-19T04:59:48.576561+00:00", "meta": {"OBJECT_NAME": "COSMOS 1408 DEB", "OBJECT_ID": "1982-092RU", "EPOCH": "2025-12-18T14:35:30.154560", "MEAN_MOTION": 15.45751534, "ECCENTRICITY": 0.00158163, "INCLINATION": 82.5642, "RA_OF_ASC_NODE": 52.4947, "ARG_OF_PERICENTER": 186.4952, "MEAN_ANOMALY": 173.6095, "EPHEMERIS_TYPE": 0, "CLASSIFICATION_TYPE": "U", "NORAD_CAT_ID": 50032, "ELEMENT_SET_NO": 999, "REV_AT_EPOCH": 22694, "BSTAR": 8.736421e-05, "MEAN_MOTION_DOT": 4.285e-05, "MEAN_MOTION_DDOT": 0}, "tle": {"line1": "1 50032U 82092RU  25352.60798790  .00004285  00000+0  87364-4 0  9994", "line2": "2 50032  82.5642  52.4947 0015816 186.4952 173.6095 15.45751534226940"}}, "geometry": {"type": "Point", "coordinates": [-171.61197364875557, 79.25497655853574]}}, {"type": "Feature", "properties": {"norad_id": 50058, "name": "COSMOS 1408 DEB", "group": "cosmos-1408-debris", "lat": 11.174798268343737, "lon": 64.0391502831838, "alt_km": 371.6985773745182, "timestamp": "2025-12-19T04:59:48.576581+00:00", "meta": {"OBJECT_NAME": "COSMOS 1408 DEB", "OBJECT_ID": "1982-092SW", "EPOCH": "2025-12-18T13:35:52.596672", "MEAN_MOTION": 15.6444692, "ECCENTRICITY": 0.00161966, "INCLINATION": 82.6131, "RA_OF_ASC_NODE": 63.2424, "ARG_OF_PERICENTER": 78.9589, "MEAN_ANOMALY": 281.3491, "EPHEMERIS_TYPE": 0, "CLASSIFICATION_TYPE": "U", "NORAD_CAT_ID": 50058, "ELEMENT_SET_NO": 999, "REV_AT_EPOCH": 22895, "BSTAR": 0.00028591151, "MEAN_MOTION_DOT": 0.00027692, "MEAN_MOTION_DDOT": 0}, "tle": {"line1": "1 50058U 82092SW  25352.56658098  .00027692  00000+0  28591-3 0  9996", "line2": "2 50058  82.6131  63.2424 0016196  78.9589 281.3491 15.64446920228956"}}, "geometry": {"type": "Point", "coordinates": [64.0391502831838, 11.174798268343737]}}, {"type": "Feature", "properties": {"norad_id": 50404, "name": "COSMOS 1408 DEB", "group": "cosmos-1408-debris", "lat": 37.65616249652212, "lon": -145.52486940120914, "alt_km": 605.8624578452882, "timestamp": "2025-12-19T04:59:48.576594+00:00", "meta": {"OBJECT_NAME": "COSMOS 1408 DEB", "OBJECT_ID": "1982-092ADS", "EPOCH": "2025-12-18T14:33:17.055360", "MEAN_MOTION": 15.14678102, "ECCENTRICITY": 0.01696438, "INCLINATION": 82.2037, "RA_OF_ASC_NODE": 209.023, "ARG_OF_PERICENTER": 178.8165, "MEAN_ANOMALY": 181.3506, "EPHEMERIS_TYPE": 0, "CLASSIFICATION_TYPE": "U", "NORAD_CAT_ID": 50404, "ELEMENT_SET_NO": 999, "REV_AT_EPOCH": 21282, "BSTAR": 0.0025991893, "MEAN_MOTION_DOT": 0.00069718, "MEAN_MOTION_DDOT": 0}, "tle": {"line1": "1 50404U 82092ADS 25352.60644740  .00069718  00000+0  25992-2 0  9991", "line2": "2 50404  82.2037 209.0230 0169643 178.8165 181.3506 15.14678102212822"}}, "geometry": {"type": "Point", "coordinates": [-145.52486940120914, 37.65616249652212]}}, {"type": "Feature", "properties": {"norad_id": 50621, "name": "COSMOS 1408 DEB", "group": "cosmos-1408-debris", "lat": -34.377376144708855, "lon": -107.43223170432483, "alt_km": 401.181840052398, "timestamp": "2025-12-19T04:59:48.576605+00:00", "meta": {"OBJECT_NAME": "COSMOS 1408 DEB", "OBJECT_ID": "1982-092ALR", "EPOCH": "2025-12-18T11:06:47.508768", "MEAN_MOTION": 15.56954115, "ECCENTRICITY": 0.00290327, "INCLINATION": 82.5704, "RA_OF_ASC_NODE": 68.2218, "ARG_OF_PERICENTER": 131.6099, "MEAN_ANOMALY": 228.7651, "EPHEMERIS_TYPE": 0, "CLASSIFICATION_TYPE": "U", "NORAD_CAT_ID": 50621, "ELEMENT_SET_NO": 999, "REV_AT_EPOCH": 22339, "BSTAR": 0.0003366426, "MEAN_MOTION_DOT": 0.00024798, "MEAN_MOTION_DDOT": 0}, "tle": {"line1": "1 50621U 82092ALR 25352.46304987  .00024798  00000+0  33664-3 0  9997", "line2": "2 50621  82.5704  68.2218 0029032 131.6099 228.7651 15.56954115223396"}}, "geometry": {"type": "Point", "coordinates": [-107.43223170432483, -34.377376144708855]}}]}